{
  "type": "FeatureCollection",
  "features": [
    {
      "type": "Feature",
      "properties": {
        "norad_id": 35996,
        "name": "COSMOS 2251 DEB",
        "group": "cosmos-2251-debris",
        "lat": 44.714170817537486,
        "lon": 96.33096861638224,
        "alt_km": 564.464515750029,
        "timestamp": "2025-12-24T03:53:30.044254+00:00",
        "meta_object_name": "COSMOS 2251 DEB",
        "meta_object_id": "1993-036AWN",
        "meta_epoch": "2025-12-15T22:25:06.327264",
        "meta_mean_motion": 15.09228347,
        "meta_eccentricity": 0.00876626,
        "meta_inclination": 74.0159,
        "meta_ra_of_asc_node": 96.8248,
        "meta_arg_of_pericenter": 187.0066,
        "meta_mean_anomaly": 172.9909,
        "meta_ephemeris_type": 0,
        "meta_classification_type": "U",
        "meta_norad_cat_id": 35996,
        "meta_element_set_no": 999,
        "meta_rev_at_epoch": 72374,
        "meta_bstar": 0.00054952121,
        "meta_mean_motion_dot": 9.536e-05,
        "meta_mean_motion_ddot": 0,
        "tle_line1": "1 35996U 93036AWN 25349.93410101  .00009536  00000+0  54952-3 0  9995",
        "tle_line2": "2 35996  74.0159  96.8248 0087662 187.0066 172.9909 15.09228347723745"
      },
      "geometry": {
        "type": "Point",
        "coordinates": [
          96.33096861638224,
          44.714170817537486
        ]
      }
    },
    {
      "type": "Feature",
      "properties": {
        "norad_id": 35997,
        "name": "COSMOS 2251 DEB",
        "group": "cosmos-2251-debris",
        "lat": -71.71282337616319,
        "lon": 105.8336234109936,
        "alt_km": 719.6090487002184,
        "timestamp": "2025-12-24T03:53:30.044265+00:00",
        "meta_object_name": "COSMOS 2251 DEB",
        "meta_object_id": "1993-036AWP",
        "meta_epoch": "2025-12-19T05:09:14.184000",
        "meta_mean_motion": 14.51343045,
        "meta_eccentricity": 0.0015535,
        "meta_inclination": 74.0424,
        "meta_ra_of_asc_node": 175.1147,
        "meta_arg_of_pericenter": 250.287,
        "meta_mean_anomaly": 109.6616,
        "meta_ephemeris_type": 0,
        "meta_classification_type": "U",
        "meta_norad_cat_id": 35997,
        "meta_element_set_no": 999,
        "meta_rev_at_epoch": 70978,
        "meta_bstar": 0.00045886,
        "meta_mean_motion_dot": 1.803e-05,
        "meta_mean_motion_ddot": 0,
        "tle_line1": "1 35997U 93036AWP 25353.21474750  .00001803  00000+0  45886-3 0  9997",
        "tle_line2": "2 35997  74.0424 175.1147 0015535 250.2870 109.6616 14.51343045709785"
      },
      "geometry": {
        "type": "Point",
        "coordinates": [
          105.8336234109936,
          -71.71282337616319
        ]
      }
    },
    {
      "type": "Feature",
      "properties": {
        "norad_id": 36005,
        "name": "COSMOS 2251 DEB",
        "group": "cosmos-2251-debris",
        "lat": 31.828777026064298,
        "lon": -117.60453365789023,
        "alt_km": 710.5179785669652,
        "timestamp": "2025-12-24T03:53:30.044275+00:00",
        "meta_object_name": "COSMOS 2251 DEB",
        "meta_object_id": "1993-036AWX",
        "meta_epoch": "2025-12-21T22:07:43.430016",
        "meta_mean_motion": 14.47371513,
        "meta_eccentricity": 0.00616385,
        "meta_inclination": 74.0271,
        "meta_ra_of_asc_node": 76.826,
        "meta_arg_of_pericenter": 212.263,
        "meta_mean_anomaly": 147.4753,
        "meta_ephemeris_type": 0,
        "meta_classification_type": "U",
        "meta_norad_cat_id": 36005,
        "meta_element_set_no": 999,
        "meta_rev_at_epoch": 87717,
        "meta_bstar": 0.00018348335,
        "meta_mean_motion_dot": 6.6e-06,
        "meta_mean_motion_ddot": 0,
        "tle_line1": "1 36005U 93036AWX 25355.92203044  .00000660  00000+0  18348-3 0  9997",
        "tle_line2": "2 36005  74.0271  76.8260 0061638 212.2630 147.4753 14.47371513877173"
      },
      "geometry": {
        "type": "Point",
        "coordinates": [
          -117.60453365789023,
          31.828777026064298
        ]
      }
    },
    {
      "type": "Feature",
      "properties": {
        "norad_id": 36045,
        "name": "COSMOS 2251 DEB",
        "group": "cosmos-2251-debris",
        "lat": 49.63340067746801,
        "lon": 56.627220892840995,
        "alt_km": 622.3121897033934,
        "timestamp": "2025-12-24T03:53:30.044285+00:00",
        "meta_object_name": "COSMOS 2251 DEB",
        "meta_object_id": "1993-036AXG",
        "meta_epoch": "2025-12-17T21:23:36.435552",
        "meta_mean_motion": 14.69971183,
        "meta_eccentricity": 0.0048002,
        "meta_inclination": 73.7643,
        "meta_ra_of_asc_node": 48.9349,
        "meta_arg_of_pericenter": 60.9199,
        "meta_mean_anomaly": 299.6765,
        "meta_ephemeris_type": 0,
        "meta_classification_type": "U",
        "meta_norad_cat_id": 36045,
        "meta_element_set_no": 999,
        "meta_rev_at_epoch": 8464,
        "meta_bstar": 0.0014164853,
        "meta_mean_motion_dot": 8.618e-05,
        "meta_mean_motion_ddot": 0,
        "tle_line1": "1 36045U 93036AXG 25351.89139393  .00008618  00000+0  14165-2 0  9991",
        "tle_line2": "2 36045  73.7643  48.9349 0048002  60.9199 299.6765 14.69971183 84640"
      },
      "geometry": {
        "type": "Point",
        "coordinates": [
          56.627220892840995,
          49.63340067746801
        ]
      }
    },
    {
      "type": "Feature",
      "properties": {
        "norad_id": 36046,
        "name": "COSMOS 2251 DEB",
        "group": "cosmos-2251-debris",
        "lat": -71.11956749966835,
        "lon": -162.4450036322384,
        "alt_km": 700.7643912996928,
        "timestamp": "2025-12-24T03:53:30.044295+00:00",
        "meta_object_name": "COSMOS 2251 DEB",
        "meta_object_id": "1993-036AXH",
        "meta_epoch": "2025-12-21T00:56:56.522112",
        "meta_mean_motion": 14.65315014,
        "meta_eccentricity": 0.00558701,
        "meta_inclination": 74.0169,
        "meta_ra_of_asc_node": 260.5061,
        "meta_arg_of_pericenter": 44.1197,
        "meta_mean_anomaly": 331.1837,
        "meta_ephemeris_type": 0,
        "meta_classification_type": "U",
        "meta_norad_cat_id": 36046,
        "meta_element_set_no": 999,
        "meta_rev_at_epoch": 64125,
        "meta_bstar": 0.00034570915,
        "meta_mean_motion_dot": 1.877e-05,
        "meta_mean_motion_ddot": 0,
        "tle_line1": "1 36046U 93036AXH 25355.03954308  .00001877  00000+0  34571-3 0  9997",
        "tle_line2": "2 36046  74.0169 260.5061 0055870  44.1197 331.1837 14.65315014641253"
      },
      "geometry": {
        "type": "Point",
        "coordinates": [
          -162.4450036322384,
          -71.11956749966835
        ]
      }
    },
    {
      "type": "Feature",
      "properties": {
        "norad_id": 36047,
        "name": "COSMOS 2251 DEB",
        "group": "cosmos-2251-debris",
        "lat": 41.13275465282469,
        "lon": -34.44363523869302,
        "alt_km": 571.3950746303162,
        "timestamp": "2025-12-24T03:53:30.044305+00:00",
        "meta_object_name": "COSMOS 2251 DEB",
        "meta_object_id": "1993-036AXJ",
        "meta_epoch": "2025-12-21T21:08:53.075040",
        "meta_mean_motion": 14.96393257,
        "meta_eccentricity": 0.000841,
        "meta_inclination": 74.036,
        "meta_ra_of_asc_node": 315.6865,
        "meta_arg_of_pericenter": 344.906,
        "meta_mean_anomaly": 15.1873,
        "meta_ephemeris_type": 0,
        "meta_classification_type": "U",
        "meta_norad_cat_id": 36047,
        "meta_element_set_no": 999,
        "meta_rev_at_epoch": 66076,
        "meta_bstar": 0.0028311075,
        "meta_mean_motion_dot": 0.00032218,
        "meta_mean_motion_ddot": 0,
        "tle_line1": "1 36047U 93036AXJ 25355.88116985  .00032218  00000+0  28311-2 0  9999",
        "tle_line2": "2 36047  74.0360 315.6865 0008410 344.9060  15.1873 14.96393257660764"
      },
      "geometry": {
        "type": "Point",
        "coordinates": [
          -34.44363523869302,
          41.13275465282469
        ]
      }
    },
    {
      "type": "Feature",
      "properties": {
        "norad_id": 36048,
        "name": "COSMOS 2251 DEB",
        "group": "cosmos-2251-debris",
        "lat": 73.40373572442036,
        "lon": 24.726825436488657,
        "alt_km": 770.1566673160387,
        "timestamp": "2025-12-24T03:53:30.044315+00:00",
        "meta_object_name": "COSMOS 2251 DEB",
        "meta_object_id": "1993-036AXK",
        "meta_epoch": "2025-12-21T06:01:50.414016",
        "meta_mean_motion": 14.37865645,
        "meta_eccentricity": 0.0026967,
        "meta_inclination": 74.0573,
        "meta_ra_of_asc_node": 283.6319,
        "meta_arg_of_pericenter": 332.094,
        "meta_mean_anomaly": 180.7418,
        "meta_ephemeris_type": 0,
        "meta_classification_type": "U",
        "meta_norad_cat_id": 36048,
        "meta_element_set_no": 999,
        "meta_rev_at_epoch": 85624,
        "meta_bstar": 0.00021907,
        "meta_mean_motion_dot": 6.37e-06,
        "meta_mean_motion_ddot": 0,
        "tle_line1": "1 36048U 93036AXK 25355.25127794  .00000637  00000+0  21907-3 0  9996",
        "tle_line2": "2 36048  74.0573 283.6319 0026967 332.0940 180.7418 14.37865645856245"
      },
      "geometry": {
        "type": "Point",
        "coordinates": [
          24.726825436488657,
          73.40373572442036
        ]
      }
    }
  ]
}